NOAA 1                  
1 04793U 70106A   26064.75098338 -.00000033  00000+0  60580-4 0  9997
2 04793 101.3521 103.9471 0031714 188.5968 286.3069 12.54049231527722
NOAA 2 (ITOS-D)         
1 06235U 72082A   26064.67702479 -.00000038  00000+0  50859-4 0  9997
2 06235 102.0167  82.0849 0004013  12.9405 102.3334 12.53211726441987
NOAA 3                  
1 06920U 73086A   26064.65354335 -.00000041  00000+0  43326-4 0  9990
2 06920 102.2908  77.5926 0006199 316.5812 170.1918 12.40391671369063
NOAA 4                  
1 07529U 74089A   26064.65731373 -.00000049  00000+0 -13838-4 0  9995
2 07529 102.0073  76.3453 0009149  36.3808  81.9599 12.53201583346551
NOAA 5                  
1 09057U 76077A   26064.56904968 -.00000036  00000+0  74182-4 0  9998
2 09057 102.2954  50.0542 0009778 168.1543 307.4353 12.37828267241650
TIROS N                 
1 11060U 78096A   26064.65236370  .00000234  00000+0  13103-3 0  9997
2 11060  98.4638  90.3513 0010524 176.6781 183.4467 14.19336444664061
NOAA 6                  
1 11416U 79057A   26064.64806068  .00000443  00000+0  16971-3 0  9994
2 11416  98.5756  94.8261 0009505 199.0818 161.0013 14.35430267436101
NOAA 7                  
1 12553U 81059A   26064.70909301  .00000089  00000+0  65301-4 0  9991
2 12553  98.8067 132.7937 0011154 199.2807 160.7948 14.17772357310087
NOAA 8                  
1 13923U 83022A   26064.63539343  .00000213  00000+0  10044-3 0  9994
2 13923  98.7374  77.4194 0014442 197.5833 162.4851 14.29765086236276
NOAA 9                  
1 15427U 84123A   26064.70145672  .00000172  00000+0  10861-3 0  9995
2 15427  99.1099  88.8914 0013691 283.7924 186.6275 14.17037459128761
NOAA 10                 
1 16969U 86073A   26064.63343547  .00000237  00000+0  11105-3 0  9990
2 16969  98.6997  58.0343 0011145 302.1736 172.3905 14.29142391 54628
NOAA 11                 
1 19531U 88089A   26064.75832653  .00000107  00000+0  76170-4 0  9991
2 19531  98.6093  13.9313 0010139 231.7654 128.2609 14.15819697932843
NOAA 12                 
1 21263U 91032A   26064.75599646  .00000165  00000+0  86118-4 0  9997
2 21263  98.6150  54.8186 0013142 335.2073  24.8474 14.26716036810218
NOAA 13                 
1 22739U 93050A   26064.75686473  .00000177  00000+0  11640-3 0  9993
2 22739  98.6928  12.6138 0010507  67.1411 293.0870 14.13634815678760
NOAA 14                 
1 23455U 94089A   26064.79198383  .00000091  00000+0  68800-4 0  9990
2 23455  98.5016  39.1921 0009992  27.1690 333.0005 14.14654230608580
NOAA 15                 
1 25338U 98030A   26064.77244471  .00000205  00000+0  10148-3 0  9998
2 25338  98.5166  88.1560 0009135 293.0807  66.9411 14.27110770446543
NOAA 16                 
1 26536U 00055A   26064.77668581  .00000145  00000+0  97849-4 0  9998
2 26536  98.4706  84.4832 0009439 234.5362 125.4931 14.13896956609111
