[{"OBJECT_NAME":"NOAA 1","OBJECT_ID":"1970-106A","EPOCH":"2026-03-05T18:01:24.964032","MEAN_MOTION":12.54049231,"ECCENTRICITY":0.0031714,"INCLINATION":101.3521,"RA_OF_ASC_NODE":103.9471,"ARG_OF_PERICENTER":188.5968,"MEAN_ANOMALY":286.3069,"EPHEMERIS_TYPE":0,"CLASSIFICATION_TYPE":"U","NORAD_CAT_ID":4793,"ELEMENT_SET_NO":999,"REV_AT_EPOCH":52772,"BSTAR":6.058e-5,"MEAN_MOTION_DOT":-3.3e-7,"MEAN_MOTION_DDOT":0},{"OBJECT_NAME":"NOAA 2 (ITOS-D)","OBJECT_ID":"1972-082A","EPOCH":"2026-03-05T16:14:54.941856","MEAN_MOTION":12.53211726,"ECCENTRICITY":0.0004013,"INCLINATION":102.0167,"RA_OF_ASC_NODE":82.0849,"ARG_OF_PERICENTER":12.9405,"MEAN_ANOMALY":102.3334,"EPHEMERIS_TYPE":0,"CLASSIFICATION_TYPE":"U","NORAD_CAT_ID":6235,"ELEMENT_SET_NO":999,"REV_AT_EPOCH":44198,"BSTAR":5.0859e-5,"MEAN_MOTION_DOT":-3.8e-7,"MEAN_MOTION_DDOT":0},{"OBJECT_NAME":"NOAA 3","OBJECT_ID":"1973-086A","EPOCH":"2026-03-05T15:41:06.145440","MEAN_MOTION":12.40391671,"ECCENTRICITY":0.0006199,"INCLINATION":102.2908,"RA_OF_ASC_NODE":77.5926,"ARG_OF_PERICENTER":316.5812,"MEAN_ANOMALY":170.1918,"EPHEMERIS_TYPE":0,"CLASSIFICATION_TYPE":"U","NORAD_CAT_ID":6920,"ELEMENT_SET_NO":999,"REV_AT_EPOCH":36906,"BSTAR":4.3326e-5,"MEAN_MOTION_DOT":-4.1e-7,"MEAN_MOTION_DDOT":0},{"OBJECT_NAME":"NOAA 4","OBJECT_ID":"1974-089A","EPOCH":"2026-03-05T15:46:31.906272","MEAN_MOTION":12.53201583,"ECCENTRICITY":0.0009149,"INCLINATION":102.0073,"RA_OF_ASC_NODE":76.3453,"ARG_OF_PERICENTER":36.3808,"MEAN_ANOMALY":81.9599,"EPHEMERIS_TYPE":0,"CLASSIFICATION_TYPE":"U","NORAD_CAT_ID":7529,"ELEMENT_SET_NO":999,"REV_AT_EPOCH":34655,"BSTAR":-1.3838e-5,"MEAN_MOTION_DOT":-4.9e-7,"MEAN_MOTION_DDOT":0},{"OBJECT_NAME":"NOAA 5","OBJECT_ID":"1976-077A","EPOCH":"2026-03-05T13:39:25.892352","MEAN_MOTION":12.37828267,"ECCENTRICITY":0.0009778,"INCLINATION":102.2954,"RA_OF_ASC_NODE":50.0542,"ARG_OF_PERICENTER":168.1543,"MEAN_ANOMALY":307.4353,"EPHEMERIS_TYPE":0,"CLASSIFICATION_TYPE":"U","NORAD_CAT_ID":9057,"ELEMENT_SET_NO":999,"REV_AT_EPOCH":24165,"BSTAR":7.4182e-5,"MEAN_MOTION_DOT":-3.6e-7,"MEAN_MOTION_DDOT":0},{"OBJECT_NAME":"TIROS N","OBJECT_ID":"1978-096A","EPOCH":"2026-03-05T15:39:24.223680","MEAN_MOTION":14.19336444,"ECCENTRICITY":0.0010524,"INCLINATION":98.4638,"RA_OF_ASC_NODE":90.3513,"ARG_OF_PERICENTER":176.6781,"MEAN_ANOMALY":183.4467,"EPHEMERIS_TYPE":0,"CLASSIFICATION_TYPE":"U","NORAD_CAT_ID":11060,"ELEMENT_SET_NO":999,"REV_AT_EPOCH":66406,"BSTAR":0.00013103,"MEAN_MOTION_DOT":2.34e-6,"MEAN_MOTION_DDOT":0},{"OBJECT_NAME":"NOAA 6","OBJECT_ID":"1979-057A","EPOCH":"2026-03-05T15:33:12.442752","MEAN_MOTION":14.35430267,"ECCENTRICITY":0.0009505,"INCLINATION":98.5756,"RA_OF_ASC_NODE":94.8261,"ARG_OF_PERICENTER":199.0818,"MEAN_ANOMALY":161.0013,"EPHEMERIS_TYPE":0,"CLASSIFICATION_TYPE":"U","NORAD_CAT_ID":11416,"ELEMENT_SET_NO":999,"REV_AT_EPOCH":43610,"BSTAR":0.00016971,"MEAN_MOTION_DOT":4.43e-6,"MEAN_MOTION_DDOT":0},{"OBJECT_NAME":"NOAA 7","OBJECT_ID":"1981-059A","EPOCH":"2026-03-05T17:01:05.636064","MEAN_MOTION":14.17772357,"ECCENTRICITY":0.0011154,"INCLINATION":98.8067,"RA_OF_ASC_NODE":132.7937,"ARG_OF_PERICENTER":199.2807,"MEAN_ANOMALY":160.7948,"EPHEMERIS_TYPE":0,"CLASSIFICATION_TYPE":"U","NORAD_CAT_ID":12553,"ELEMENT_SET_NO":999,"REV_AT_EPOCH":31008,"BSTAR":6.5301e-5,"MEAN_MOTION_DOT":8.9e-7,"MEAN_MOTION_DDOT":0},{"OBJECT_NAME":"NOAA 8","OBJECT_ID":"1983-022A","EPOCH":"2026-03-05T15:14:57.992352","MEAN_MOTION":14.29765086,"ECCENTRICITY":0.0014442,"INCLINATION":98.7374,"RA_OF_ASC_NODE":77.4194,"ARG_OF_PERICENTER":197.5833,"MEAN_ANOMALY":162.4851,"EPHEMERIS_TYPE":0,"CLASSIFICATION_TYPE":"U","NORAD_CAT_ID":13923,"ELEMENT_SET_NO":999,"REV_AT_EPOCH":23627,"BSTAR":0.00010044,"MEAN_MOTION_DOT":2.13e-6,"MEAN_MOTION_DDOT":0},{"OBJECT_NAME":"NOAA 9","OBJECT_ID":"1984-123A","EPOCH":"2026-03-05T16:50:05.860608","MEAN_MOTION":14.17037459,"ECCENTRICITY":0.0013691,"INCLINATION":99.1099,"RA_OF_ASC_NODE":88.8914,"ARG_OF_PERICENTER":283.7924,"MEAN_ANOMALY":186.6275,"EPHEMERIS_TYPE":0,"CLASSIFICATION_TYPE":"U","NORAD_CAT_ID":15427,"ELEMENT_SET_NO":999,"REV_AT_EPOCH":12876,"BSTAR":0.00010861,"MEAN_MOTION_DOT":1.72e-6,"MEAN_MOTION_DDOT":0},{"OBJECT_NAME":"NOAA 10","OBJECT_ID":"1986-073A","EPOCH":"2026-03-05T15:12:08.824608","MEAN_MOTION":14.29142391,"ECCENTRICITY":0.0011145,"INCLINATION":98.6997,"RA_OF_ASC_NODE":58.0343,"ARG_OF_PERICENTER":302.1736,"MEAN_ANOMALY":172.3905,"EPHEMERIS_TYPE":0,"CLASSIFICATION_TYPE":"U","NORAD_CAT_ID":16969,"ELEMENT_SET_NO":999,"REV_AT_EPOCH":5462,"BSTAR":0.00011105,"MEAN_MOTION_DOT":2.37e-6,"MEAN_MOTION_DDOT":0},{"OBJECT_NAME":"NOAA 11","OBJECT_ID":"1988-089A","EPOCH":"2026-03-05T18:11:59.412192","MEAN_MOTION":14.15819697,"ECCENTRICITY":0.0010139,"INCLINATION":98.6093,"RA_OF_ASC_NODE":13.9313,"ARG_OF_PERICENTER":231.7654,"MEAN_ANOMALY":128.2609,"EPHEMERIS_TYPE":0,"CLASSIFICATION_TYPE":"U","NORAD_CAT_ID":19531,"ELEMENT_SET_NO":999,"REV_AT_EPOCH":93284,"BSTAR":7.617e-5,"MEAN_MOTION_DOT":1.07e-6,"MEAN_MOTION_DDOT":0},{"OBJECT_NAME":"NOAA 12","OBJECT_ID":"1991-032A","EPOCH":"2026-03-05T18:08:38.094144","MEAN_MOTION":14.26716036,"ECCENTRICITY":0.0013142,"INCLINATION":98.615,"RA_OF_ASC_NODE":54.8186,"ARG_OF_PERICENTER":335.2073,"MEAN_ANOMALY":24.8474,"EPHEMERIS_TYPE":0,"CLASSIFICATION_TYPE":"U","NORAD_CAT_ID":21263,"ELEMENT_SET_NO":999,"REV_AT_EPOCH":81021,"BSTAR":8.6118e-5,"MEAN_MOTION_DOT":1.65e-6,"MEAN_MOTION_DDOT":0},{"OBJECT_NAME":"NOAA 13","OBJECT_ID":"1993-050A","EPOCH":"2026-03-05T18:09:53.112672","MEAN_MOTION":14.13634815,"ECCENTRICITY":0.0010507,"INCLINATION":98.6928,"RA_OF_ASC_NODE":12.6138,"ARG_OF_PERICENTER":67.1411,"MEAN_ANOMALY":293.087,"EPHEMERIS_TYPE":0,"CLASSIFICATION_TYPE":"U","NORAD_CAT_ID":22739,"ELEMENT_SET_NO":999,"REV_AT_EPOCH":67876,"BSTAR":0.0001164,"MEAN_MOTION_DOT":1.77e-6,"MEAN_MOTION_DDOT":0},{"OBJECT_NAME":"NOAA 14","OBJECT_ID":"1994-089A","EPOCH":"2026-03-05T19:00:27.402912","MEAN_MOTION":14.1465423,"ECCENTRICITY":0.0009992,"INCLINATION":98.5016,"RA_OF_ASC_NODE":39.1921,"ARG_OF_PERICENTER":27.169,"MEAN_ANOMALY":333.0005,"EPHEMERIS_TYPE":0,"CLASSIFICATION_TYPE":"U","NORAD_CAT_ID":23455,"ELEMENT_SET_NO":999,"REV_AT_EPOCH":60858,"BSTAR":6.88e-5,"MEAN_MOTION_DOT":9.1e-7,"MEAN_MOTION_DDOT":0},{"OBJECT_NAME":"NOAA 15","OBJECT_ID":"1998-030A","EPOCH":"2026-03-05T18:32:19.222944","MEAN_MOTION":14.2711077,"ECCENTRICITY":0.0009135,"INCLINATION":98.5166,"RA_OF_ASC_NODE":88.156,"ARG_OF_PERICENTER":293.0807,"MEAN_ANOMALY":66.9411,"EPHEMERIS_TYPE":0,"CLASSIFICATION_TYPE":"U","NORAD_CAT_ID":25338,"ELEMENT_SET_NO":999,"REV_AT_EPOCH":44654,"BSTAR":0.00010148,"MEAN_MOTION_DOT":2.05e-6,"MEAN_MOTION_DDOT":0},{"OBJECT_NAME":"NOAA 16","OBJECT_ID":"2000-055A","EPOCH":"2026-03-05T18:38:25.653984","MEAN_MOTION":14.13896956,"ECCENTRICITY":0.0009439,"INCLINATION":98.4706,"RA_OF_ASC_NODE":84.4832,"ARG_OF_PERICENTER":234.5362,"MEAN_ANOMALY":125.4931,"EPHEMERIS_TYPE":0,"CLASSIFICATION_TYPE":"U","NORAD_CAT_ID":26536,"ELEMENT_SET_NO":999,"REV_AT_EPOCH":60911,"BSTAR":9.7849e-5,"MEAN_MOTION_DOT":1.45e-6,"MEAN_MOTION_DDOT":0}]
